{"type": "FeatureCollection", "features": [ {"type": "Feature", "properties": {"norad_id": 40664, "name": "SKY MEXICO-1", "group": "intelsat", "lat": -0.02624281471657979, "lon": -36.150353952799286, "alt_km": 35778.09911090556, "timestamp": "2025-12-22T20:43:45.510659+00:00", "meta": {"OBJECT_NAME": "SKY MEXICO-1", "OBJECT_ID": "2015-026B", "EPOCH": "2025-12-22T11:10:21.220896", "MEAN_MOTION": 1.00271143, "ECCENTRICITY": 0.00023989, "INCLINATION": 0.0142, "RA_OF_ASC_NODE": 4.5629, "ARG_OF_PERICENTER": 283.2805, "MEAN_ANOMALY": 252.2543, "EPHEMERIS_TYPE": 0, "CLASSIFICATION_TYPE": "U", "NORAD_CAT_ID": 40664, "ELEMENT_SET_NO": 999, "REV_AT_EPOCH": 3868, "BSTAR": 0, "MEAN_MOTION_DOT": -2.13e-06, "MEAN_MOTION_DDOT": 0}, "tle": {"line1": "1 40664U 15026B   25356.46552339 -.00000213  00000+0  00000+0 0  9997", "line2": "2 40664   0.0142   4.5629 0002398 283.2805 252.2543  1.00271143 38682"}}, "geometry": {"type": "Point", "coordinates": [-36.150353952799286, -0.02624281471657979]}}, {"type": "Feature", "properties": {"norad_id": 40874, "name": "INTELSAT 34 (IS-34)", "group": "intelsat", "lat": 0.005352242058847227, "lon": -12.88364482325459, "alt_km": 35787.94490990866, "timestamp": "2025-12-22T20:43:45.510671+00:00", "meta": {"OBJECT_NAME": "INTELSAT 34 (IS-34)", "OBJECT_ID": "2015-039A", "EPOCH": "2025-12-22T11:11:19.477824", "MEAN_MOTION": 1.00275391, "ECCENTRICITY": 7.019e-05, "INCLINATION": 0.0157, "RA_OF_ASC_NODE": 310.7317, "ARG_OF_PERICENTER": 232.3178, "MEAN_ANOMALY": 20.5664, "EPHEMERIS_TYPE": 0, "CLASSIFICATION_TYPE": "U", "NORAD_CAT_ID": 40874, "ELEMENT_SET_NO": 999, "REV_AT_EPOCH": 3785, "BSTAR": 0, "MEAN_MOTION_DOT": -2.64e-06, "MEAN_MOTION_DDOT": 0}, "tle": {"line1": "1 40874U 15039A   25356.46619766 -.00000264  00000+0  00000+0 0  9998", "line2": "2 40874   0.0157 310.7317 0000701 232.3178  20.5664  1.00275391 37858"}}, "geometry": {"type": "Point", "coordinates": [-12.88364482325459, 0.005352242058847227]}}, {"type": "Feature", "properties": {"norad_id": 41581, "name": "INTELSAT 31 (IS-31)", "group": "intelsat", "lat": -0.0036473411744282432, "lon": -52.41725541293438, "alt_km": 35781.60089382572, "timestamp": "2025-12-22T20:43:45.510682+00:00", "meta": {"OBJECT_NAME": "INTELSAT 31 (IS-31)", "OBJECT_ID": "2016-035A", "EPOCH": "2025-12-22T11:00:05.552640", "MEAN_MOTION": 1.0028394, "ECCENTRICITY": 0.00017304, "INCLINATION": 0.0313, "RA_OF_ASC_NODE": 263.1779, "ARG_OF_PERICENTER": 322.7046, "MEAN_ANOMALY": 295.354, "EPHEMERIS_TYPE": 0, "CLASSIFICATION_TYPE": "U", "NORAD_CAT_ID": 41581, "ELEMENT_SET_NO": 999, "REV_AT_EPOCH": 3491, "BSTAR": 0, "MEAN_MOTION_DOT": -1.31e-06, "MEAN_MOTION_DDOT": 0}, "tle": {"line1": "1 41581U 16035A   25356.45839760 -.00000131  00000+0  00000+0 0  9991", "line2": "2 41581   0.0313 263.1779 0001730 322.7046 295.3540  1.00283940 34910"}}, "geometry": {"type": "Point", "coordinates": [-52.41725541293438, -0.0036473411744282432]}}, {"type": "Feature", "properties": {"norad_id": 41747, "name": "INTELSAT 36 (IS-36)", "group": "intelsat", "lat": 0.033868145444515434, "lon": 111.09717871828202, "alt_km": 35789.73366092364, "timestamp": "2025-12-22T20:43:45.510694+00:00", "meta": {"OBJECT_NAME": "INTELSAT 36 (IS-36)", "OBJECT_ID": "2016-053A", "EPOCH": "2025-12-22T13:29:30.047712", "MEAN_MOTION": 1.0027117, "ECCENTRICITY": 0.00010206, "INCLINATION": 0.0105, "RA_OF_ASC_NODE": 0.216, "ARG_OF_PERICENTER": 326.742, "MEAN_ANOMALY": 35.2784, "EPHEMERIS_TYPE": 0, "CLASSIFICATION_TYPE": "U", "NORAD_CAT_ID": 41747, "ELEMENT_SET_NO": 999, "REV_AT_EPOCH": 3417, "BSTAR": 0, "MEAN_MOTION_DOT": -3e-08, "MEAN_MOTION_DDOT": 0}, "tle": {"line1": "1 41747U 16053A   25356.56215333 -.00000003  00000+0  00000+0 0  9999", "line2": "2 41747   0.0105   0.2160 0001020 326.7420  35.2784  1.00271170 34170"}}, "geometry": {"type": "Point", "coordinates": [111.09717871828202, 0.033868145444515434]}}, {"type": "Feature", "properties": {"norad_id": 41945, "name": "INTELSAT 32E (IS-32E)", "group": "intelsat", "lat": -0.025592829463091698, "lon": -0.5808778348997372, "alt_km": 35785.80315187349, "timestamp": "2025-12-22T20:43:45.510705+00:00", "meta": {"OBJECT_NAME": "INTELSAT 32E (IS-32E)", "OBJECT_ID": "2017-007B", "EPOCH": "2025-12-22T11:14:34.167264", "MEAN_MOTION": 1.00270563, "ECCENTRICITY": 3.75e-05, "INCLINATION": 0.0236, "RA_OF_ASC_NODE": 67.3909, "ARG_OF_PERICENTER": 356.8656, "MEAN_ANOMALY": 152.4885, "EPHEMERIS_TYPE": 0, "CLASSIFICATION_TYPE": "U", "NORAD_CAT_ID": 41945, "ELEMENT_SET_NO": 999, "REV_AT_EPOCH": 3245, "BSTAR": 0, "MEAN_MOTION_DOT": -2.47e-06, "MEAN_MOTION_DDOT": 0}, "tle": {"line1": "1 41945U 17007B   25356.46845101 -.00000247  00000+0  00000+0 0  9990", "line2": "2 41945   0.0236  67.3909 0000375 356.8656 152.4885  1.00270563 32455"}}, "geometry": {"type": "Point", "coordinates": [-0.5808778348997372, -0.025592829463091698]}}, {"type": "Feature", "properties": {"norad_id": 42818, "name": "INTELSAT 35E (IS-35E)", "group": "intelsat", "lat": -0.0043535724028457, "lon": 8.110899814501948, "alt_km": 35787.047658371885, "timestamp": "2025-12-22T20:43:45.510717+00:00", "meta": {"OBJECT_NAME": "INTELSAT 35E (IS-35E)", "OBJECT_ID": "2017-041A", "EPOCH": "2025-12-22T11:17:18.904416", "MEAN_MOTION": 1.00267679, "ECCENTRICITY": 0.00019503, "INCLINATION": 0.0219, "RA_OF_ASC_NODE": 17.0294, "ARG_OF_PERICENTER": 262.6673, "MEAN_ANOMALY": 306.4061, "EPHEMERIS_TYPE": 0, "CLASSIFICATION_TYPE": "U", "NORAD_CAT_ID": 42818, "ELEMENT_SET_NO": 999, "REV_AT_EPOCH": 3104, "BSTAR": 0, "MEAN_MOTION_DOT": 0, "MEAN_MOTION_DDOT": 0}, "tle": {"line1": "1 42818U 17041A   25356.47035769  .00000000  00000+0  00000+0 0  9996", "line2": "2 42818   0.0219  17.0294 0001950 262.6673 306.4061  1.00267679 31043"}}, "geometry": {"type": "Point", "coordinates": [8.110899814501948, -0.0043535724028457]}}, {"type": "Feature", "properties": {"norad_id": 42950, "name": "INTELSAT 37E (IS-37E)", "group": "intelsat", "lat": 0.014954823487452026, "lon": 24.617475246105634, "alt_km": 35793.322281661385, "timestamp": "2025-12-22T20:43:45.510728+00:00", "meta": {"OBJECT_NAME": "INTELSAT 37E (IS-37E)", "OBJECT_ID": "2017-059A", "EPOCH": "2025-12-22T07:56:38.121792", "MEAN_MOTION": 1.00270278, "ECCENTRICITY": 0.00029392, "INCLINATION": 0.0215, "RA_OF_ASC_NODE": 5.7204, "ARG_OF_PERICENTER": 255.6438, "MEAN_ANOMALY": 290.929, "EPHEMERIS_TYPE": 0, "CLASSIFICATION_TYPE": "U", "NORAD_CAT_ID": 42950, "ELEMENT_SET_NO": 999, "REV_AT_EPOCH": 3029, "BSTAR": 0, "MEAN_MOTION_DOT": 0, "MEAN_MOTION_DDOT": 0}, "tle": {"line1": "1 42950U 17059A   25356.33099678  .00000000  00000+0  00000+0 0  9996", "line2": "2 42950   0.0215   5.7204 0002939 255.6438 290.9290  1.00270278 30296"}}, "geometry": {"type": "Point", "coordinates": [24.617475246105634, 0.014954823487452026]}}, {"type": "Feature", "properties": {"norad_id": 43632, "name": "AZERSPACE 2 (IS-38)", "group": "intelsat", "lat": 0.016401267717268218, "lon": 87.70731880851311, "alt_km": 35791.65794539678, "timestamp": "2025-12-22T20:43:45.510739+00:00", "meta": {"OBJECT_NAME": "AZERSPACE 2 (IS-38)", "OBJECT_ID": "2018-074A", "EPOCH": "2025-12-22T11:40:01.728768", "MEAN_MOTION": 1.00269966, "ECCENTRICITY": 0.00012119, "INCLINATION": 0.0009, "RA_OF_ASC_NODE": 54.2649, "ARG_OF_PERICENTER": 218.3873, "MEAN_ANOMALY": 38.7587, "EPHEMERIS_TYPE": 0, "CLASSIFICATION_TYPE": "U", "NORAD_CAT_ID": 43632, "ELEMENT_SET_NO": 999, "REV_AT_EPOCH": 2667, "BSTAR": 0, "MEAN_MOTION_DOT": 1.58e-06, "MEAN_MOTION_DDOT": 0}, "tle": {"line1": "1 43632U 18074A   25356.48613112  .00000158  00000+0  00000+0 0  9997", "line2": "2 43632   0.0009  54.2649 0001211 218.3873  38.7587  1.00269966 26674"}}, "geometry": {"type": "Point", "coordinates": [87.70731880851311, 0.016401267717268218]}}, {"type": "Feature", "properties": {"norad_id": 43633, "name": "HORIZONS-3E", "group": "intelsat", "lat": 0.0032182080475713797, "lon": -148.42976226746975, "alt_km": 35787.7364509452, "timestamp": "2025-12-22T20:43:45.510751+00:00", "meta": {"OBJECT_NAME": "HORIZONS-3E", "OBJECT_ID": "2018-074B", "EPOCH": "2025-12-22T10:32:38.181984", "MEAN_MOTION": 1.00269678, "ECCENTRICITY": 6.708e-05, "INCLINATION": 0.01, "RA_OF_ASC_NODE": 217.192, "ARG_OF_PERICENTER": 107.0412, "MEAN_ANOMALY": 94.1555, "EPHEMERIS_TYPE": 0, "CLASSIFICATION_TYPE": "U", "NORAD_CAT_ID": 43633, "ELEMENT_SET_NO": 999, "REV_AT_EPOCH": 2656, "BSTAR": 0, "MEAN_MOTION_DOT": 0, "MEAN_MOTION_DDOT": 0}, "tle": {"line1": "1 43633U 18074B   25356.43933081  .00000000  00000+0  00000+0 0  9999", "line2": "2 43633   0.0100 217.1920 0000670 107.0412  94.1555  1.00269678 26569"}}, "geometry": {"type": "Point", "coordinates": [-148.42976226746975, 0.0032182080475713797]}}, {"type": "Feature", "properties": {"norad_id": 44333, "name": "AT&T T-16", "group": "intelsat", "lat": -0.033761730689302216, "lon": -58.25976556354559, "alt_km": 35790.164556637574, "timestamp": "2025-12-22T20:43:45.510762+00:00", "meta": {"OBJECT_NAME": "AT&T T-16", "OBJECT_ID": "2019-034A", "EPOCH": "2025-12-22T11:52:42.160224", "MEAN_MOTION": 1.00269647, "ECCENTRICITY": 8.575e-05, "INCLINATION": 0.0179, "RA_OF_ASC_NODE": 59.7457, "ARG_OF_PERICENTER": 78.451, "MEAN_ANOMALY": 30.4232, "EPHEMERIS_TYPE": 0, "CLASSIFICATION_TYPE": "U", "NORAD_CAT_ID": 44333, "ELEMENT_SET_NO": 999, "REV_AT_EPOCH": 2386, "BSTAR": 0, "MEAN_MOTION_DOT": -9.3e-07, "MEAN_MOTION_DDOT": 0}, "tle": {"line1": "1 44333U 19034A   25356.49493241 -.00000093  00000+0  00000+0 0  9992", "line2": "2 44333   0.0179  59.7457 0000857  78.4510  30.4232  1.00269647 23866"}}, "geometry": {"type": "Point", "coordinates": [-58.25976556354559, -0.033761730689302216]}}]}